{"type": "FeatureCollection", "features": [{"type": "Feature", "properties": {"norad_id": 66311, "name": "CMS-03 (GSAT-7R)", "group": "active", "lat": -0.1481833340642641, "lon": -136.50266935190683, "alt_km": 35794.387106533075, "timestamp": "2025-12-01T03:58:49.237808+00:00", "meta": {"OBJECT_NAME": "CMS-03 (GSAT-7R)", "OBJECT_ID": "2025-249B", "EPOCH": "2025-11-30T19:25:30.933120", "MEAN_MOTION": 1.00269134, "ECCENTRICITY": 0.0004118, "INCLINATION": 0.1713, "RA_OF_ASC_NODE": 271.9441, "ARG_OF_PERICENTER": 196.1567, "MEAN_ANOMALY": 346.7103, "EPHEMERIS_TYPE": 0, "CLASSIFICATION_TYPE": "U", "NORAD_CAT_ID": 66311, "ELEMENT_SET_NO": 999, "REV_AT_EPOCH": 36, "BSTAR": 0, "MEAN_MOTION_DOT": -2.36e-06, "MEAN_MOTION_DDOT": 0, "GROUP": "active"}, "tle": {"line1": "1 66311U 25249B   25334.80938580 -.00000236  00000+0  00000+0 0  9997", "line2": "2 66311   0.1713 271.9441 0004118 196.1567 346.7103  1.00269134   367"}}, "geometry": {"type": "Point", "coordinates": [-136.50266935190683, -0.1481833340642641]}}, {"type": "Feature", "properties": {"norad_id": 66313, "name": "YAOGAN-46", "group": "active", "lat": 17.060959388608122, "lon": -137.61045493597112, "alt_km": 7363.190813771777, "timestamp": "2025-12-01T03:58:49.237832+00:00", "meta": {"OBJECT_NAME": "YAOGAN-46", "OBJECT_ID": "2025-250A", "EPOCH": "2025-11-23T01:44:02.775840", "MEAN_MOTION": 5.35115916, "ECCENTRICITY": 0.00492374, "INCLINATION": 20.0335, "RA_OF_ASC_NODE": 104.8243, "ARG_OF_PERICENTER": 135.6954, "MEAN_ANOMALY": 224.7061, "EPHEMERIS_TYPE": 0, "CLASSIFICATION_TYPE": "U", "NORAD_CAT_ID": 66313, "ELEMENT_SET_NO": 999, "REV_AT_EPOCH": 114, "BSTAR": 0, "MEAN_MOTION_DOT": -7e-08, "MEAN_MOTION_DDOT": 0, "GROUP": "active"}, "tle": {"line1": "1 66313U 25250A   25327.07225435 -.00000007  00000+0  00000+0 0  9996", "line2": "2 66313  20.0335 104.8243 0049237 135.6954 224.7061  5.35115916  1148"}}, "geometry": {"type": "Point", "coordinates": [-137.61045493597112, 17.060959388608122]}}, {"type": "Feature", "properties": {"norad_id": 66315, "name": "SENTINEL-1D", "group": "active", "lat": 32.98273113517936, "lon": 165.71216581862433, "alt_km": 690.9603860866, "timestamp": "2025-12-01T03:58:49.237846+00:00", "meta": {"OBJECT_NAME": "SENTINEL-1D", "OBJECT_ID": "2025-251A", "EPOCH": "2025-11-25T22:17:03.828192", "MEAN_MOTION": 14.59751375, "ECCENTRICITY": 0.0001477, "INCLINATION": 98.1939, "RA_OF_ASC_NODE": 335.1735, "ARG_OF_PERICENTER": 179.8573, "MEAN_ANOMALY": 180.2628, "EPHEMERIS_TYPE": 0, "CLASSIFICATION_TYPE": "U", "NORAD_CAT_ID": 66315, "ELEMENT_SET_NO": 999, "REV_AT_EPOCH": 308, "BSTAR": 5.2376371e-05, "MEAN_MOTION_DOT": 2.04e-06, "MEAN_MOTION_DDOT": 0, "GROUP": "active"}, "tle": {"line1": "1 66315U 25251A   25329.92851653  .00000204  00000+0  52376-4 0  9998", "line2": "2 66315  98.1939 335.1735 0001477 179.8573 180.2628 14.59751375  3083"}}, "geometry": {"type": "Point", "coordinates": [165.71216581862433, 32.98273113517936]}}, {"type": "Feature", "properties": {"norad_id": 66316, "name": "QPS-SAR-14 (YACHIHOKO-I)", "group": "active", "lat": -3.173787429005949, "lon": -37.63504057432975, "alt_km": 576.7883798904859, "timestamp": "2025-12-01T03:58:49.237858+00:00", "meta": {"OBJECT_NAME": "QPS-SAR-14 (YACHIHOKO-I)", "OBJECT_ID": "2025-252A", "EPOCH": "2025-11-30T19:09:23.520096", "MEAN_MOTION": 14.97499609, "ECCENTRICITY": 0.0007013, "INCLINATION": 42.0028, "RA_OF_ASC_NODE": 140.8473, "ARG_OF_PERICENTER": 66.6752, "MEAN_ANOMALY": 293.481, "EPHEMERIS_TYPE": 0, "CLASSIFICATION_TYPE": "U", "NORAD_CAT_ID": 66316, "ELEMENT_SET_NO": 999, "REV_AT_EPOCH": 374, "BSTAR": 0.00050568, "MEAN_MOTION_DOT": 5.817e-05, "MEAN_MOTION_DDOT": 0, "GROUP": "active"}, "tle": {"line1": "1 66316U 25252A   25334.79818889  .00005817  00000+0  50568-3 0  9990", "line2": "2 66316  42.0028 140.8473 0007013  66.6752 293.4810 14.97499609  3749"}}, "geometry": {"type": "Point", "coordinates": [-37.63504057432975, -3.173787429005949]}}, {"type": "Feature", "properties": {"norad_id": 66376, "name": "SHIYAN-32 01", "group": "active", "lat": 42.942421932200304, "lon": -82.34621135502442, "alt_km": 428.4175713732675, "timestamp": "2025-12-01T03:58:49.237876+00:00", "meta": {"OBJECT_NAME": "SHIYAN-32 01", "OBJECT_ID": "2025-255A", "EPOCH": "2025-11-30T19:57:04.588704", "MEAN_MOTION": 15.42153496, "ECCENTRICITY": 0.0013358, "INCLINATION": 52.9964, "RA_OF_ASC_NODE": 234.665, "ARG_OF_PERICENTER": 5.3986, "MEAN_ANOMALY": 354.7159, "EPHEMERIS_TYPE": 0, "CLASSIFICATION_TYPE": "U", "NORAD_CAT_ID": 66376, "ELEMENT_SET_NO": 999, "REV_AT_EPOCH": 351, "BSTAR": 0.00047095, "MEAN_MOTION_DOT": 0.0002019, "MEAN_MOTION_DDOT": 0, "GROUP": "active"}, "tle": {"line1": "1 66376U 25255A   25334.83130311  .00020190  00000+0  47095-3 0  9993", "line2": "2 66376  52.9964 234.6650 0013358   5.3986 354.7159 15.42153496  3515"}}, "geometry": {"type": "Point", "coordinates": [-82.34621135502442, 42.942421932200304]}}, {"type": "Feature", "properties": {"norad_id": 66378, "name": "SHIYAN-32 02", "group": "active", "lat": 31.472847228730288, "lon": 25.424267879670516, "alt_km": 436.8924437085525, "timestamp": "2025-12-01T03:58:49.237898+00:00", "meta": {"OBJECT_NAME": "SHIYAN-32 02", "OBJECT_ID": "2025-255C", "EPOCH": "2025-11-30T18:03:30.937824", "MEAN_MOTION": 15.43751026, "ECCENTRICITY": 0.0012779, "INCLINATION": 52.9971, "RA_OF_ASC_NODE": 234.8871, "ARG_OF_PERICENTER": 5.0923, "MEAN_ANOMALY": 355.0209, "EPHEMERIS_TYPE": 0, "CLASSIFICATION_TYPE": "U", "NORAD_CAT_ID": 66378, "ELEMENT_SET_NO": 999, "REV_AT_EPOCH": 336, "BSTAR": 0.0013964, "MEAN_MOTION_DOT": 0.00064411, "MEAN_MOTION_DDOT": 0, "GROUP": "active"}, "tle": {"line1": "1 66378U 25255C   25334.75244141  .00064411  00000+0  13964-2 0  9994", "line2": "2 66378  52.9971 234.8871 0012779   5.0923 355.0209 15.43751026  3363"}}, "geometry": {"type": "Point", "coordinates": [25.424267879670516, 31.472847228730288]}}, {"type": "Feature", "properties": {"norad_id": 66409, "name": "CHUTIAN-2 A", "group": "active", "lat": 3.8719455169508183, "lon": -139.3037790603156, "alt_km": 721.0257570631566, "timestamp": "2025-12-01T03:58:49.237933+00:00", "meta": {"OBJECT_NAME": "CHUTIAN-2 A", "OBJECT_ID": "2025-256A", "EPOCH": "2025-11-30T20:32:43.924416", "MEAN_MOTION": 14.49911741, "ECCENTRICITY": 0.0013037, "INCLINATION": 98.2778, "RA_OF_ASC_NODE": 39.8274, "ARG_OF_PERICENTER": 214.3476, "MEAN_ANOMALY": 145.6877, "EPHEMERIS_TYPE": 0, "CLASSIFICATION_TYPE": "U", "NORAD_CAT_ID": 66409, "ELEMENT_SET_NO": 999, "REV_AT_EPOCH": 315, "BSTAR": 2.4509e-05, "MEAN_MOTION_DOT": 5.1e-07, "MEAN_MOTION_DDOT": 0, "GROUP": "active"}, "tle": {"line1": "1 66409U 25256A   25334.85606394  .00000051  00000+0  24509-4 0  9992", "line2": "2 66409  98.2778  39.8274 0013037 214.3476 145.6877 14.49911741  3150"}}, "geometry": {"type": "Point", "coordinates": [-139.3037790603156, 3.8719455169508183]}}, {"type": "Feature", "properties": {"norad_id": 66410, "name": "CHUTIAN-2 B", "group": "active", "lat": -47.41800887057978, "lon": -148.95798810108462, "alt_km": 720.0067074533727, "timestamp": "2025-12-01T03:58:49.237951+00:00", "meta": {"OBJECT_NAME": "CHUTIAN-2 B", "OBJECT_ID": "2025-256B", "EPOCH": "2025-11-30T20:18:44.756640", "MEAN_MOTION": 14.50998697, "ECCENTRICITY": 0.0013156, "INCLINATION": 98.2808, "RA_OF_ASC_NODE": 39.8462, "ARG_OF_PERICENTER": 218.315, "MEAN_ANOMALY": 141.7111, "EPHEMERIS_TYPE": 0, "CLASSIFICATION_TYPE": "U", "NORAD_CAT_ID": 66410, "ELEMENT_SET_NO": 999, "REV_AT_EPOCH": 315, "BSTAR": 0.00018111, "MEAN_MOTION_DOT": 6.73e-06, "MEAN_MOTION_DDOT": 0, "GROUP": "active"}, "tle": {"line1": "1 66410U 25256B   25334.84635135  .00000673  00000+0  18111-3 0  9999", "line2": "2 66410  98.2808  39.8462 0013156 218.3150 141.7111 14.50998697  3155"}}, "geometry": {"type": "Point", "coordinates": [-148.95798810108462, -47.41800887057978]}}, {"type": "Feature", "properties": {"norad_id": 66412, "name": "HULIANWANG DIGUI 13A", "group": "active", "lat": -22.2539350443893, "lon": 150.7737407599902, "alt_km": 819.5052772137224, "timestamp": "2025-12-01T03:58:49.237962+00:00", "meta": {"OBJECT_NAME": "HULIANWANG DIGUI 13A", "OBJECT_ID": "2025-258A", "EPOCH": "2025-11-30T10:09:00.838368", "MEAN_MOTION": 14.23488414, "ECCENTRICITY": 0.00140805, "INCLINATION": 50.004, "RA_OF_ASC_NODE": 313.8088, "ARG_OF_PERICENTER": 314.2937, "MEAN_ANOMALY": 45.682, "EPHEMERIS_TYPE": 0, "CLASSIFICATION_TYPE": "U", "NORAD_CAT_ID": 66412, "ELEMENT_SET_NO": 999, "REV_AT_EPOCH": 290, "BSTAR": 6.501474e-05, "MEAN_MOTION_DOT": -1e-07, "MEAN_MOTION_DDOT": 0, "GROUP": "active"}, "tle": {"line1": "1 66412U 25258A   25334.42292637 -.00000010  00000+0  65015-4 0  9995", "line2": "2 66412  50.0040 313.8088 0014080 314.2937  45.6820 14.23488414  2908"}}, "geometry": {"type": "Point", "coordinates": [150.7737407599902, -22.2539350443893]}}, {"type": "Feature", "properties": {"norad_id": 66413, "name": "HULIANWANG DIGUI 13B", "group": "active", "lat": 7.259912250238228, "lon": 124.60367204670224, "alt_km": 821.2160441022806, "timestamp": "2025-12-01T03:58:49.237973+00:00", "meta": {"OBJECT_NAME": "HULIANWANG DIGUI 13B", "OBJECT_ID": "2025-258B", "EPOCH": "2025-11-30T15:23:17.762784", "MEAN_MOTION": 14.23480004, "ECCENTRICITY": 0.00133851, "INCLINATION": 50.0009, "RA_OF_ASC_NODE": 312.952, "ARG_OF_PERICENTER": 315.6305, "MEAN_ANOMALY": 44.3535, "EPHEMERIS_TYPE": 0, "CLASSIFICATION_TYPE": "U", "NORAD_CAT_ID": 66413, "ELEMENT_SET_NO": 999, "REV_AT_EPOCH": 293, "BSTAR": 2.9988059e-05, "MEAN_MOTION_DOT": -9.1e-07, "MEAN_MOTION_DDOT": 0, "GROUP": "active"}, "tle": {"line1": "1 66413U 25258B   25334.64117781 -.00000091  00000+0  29988-4 0  9994", "line2": "2 66413  50.0009 312.9520 0013385 315.6305  44.3535 14.23480004  2935"}}, "geometry": {"type": "Point", "coordinates": [124.60367204670224, 7.259912250238228]}}]}